start=new Date('2023-06-30T00:00:00.000Z').valueOf();
sats=[{"LAUNCH_DATE":"2023-04-19","RA_OF_ASC_NODE":"161.7175","EPHEMERIS_TYPE":"0","ELEMENT_SET_NO":"999","OBJECT_ID":"2023-056E","COUNTRY_CODE":"US","REF_FRAME":"TEME","CENTER_NAME":"EARTH","TLE_LINE1":"1 56290U 23056E   23180.38643855  .00003861  00000-0  21923-3 0  9992","EPOCH":"2023-06-29T09:16:28.290720","PERIAPSIS":"522.007","MEAN_ANOMALY":"97.9704","OBJECT_NAME":"STARLINK-30103","SITE":"AFETR","TLE_LINE2":"2 56290  42.9999 161.7175 0001528 262.0969  97.9704 15.14314829 11325","RCS_SIZE":"LARGE","MEAN_ELEMENT_THEORY":"SGP4","DECAY_DATE":null,"MEAN_MOTION":"15.14314829","MEAN_MOTION_DDOT":"0.0000000000000","FILE":"3945771","PERIOD":"95.093","ARG_OF_PERICENTER":"262.0969","OBJECT_TYPE":"PAYLOAD","TIME_SYSTEM":"UTC","CLASSIFICATION_TYPE":"U","GP_ID":"234625707","BSTAR":"0.00021923000000","MEAN_MOTION_DOT":"0.00003861","INCLINATION":"42.9999","ECCENTRICITY":"0.00015280","SEMIMAJOR_AXIS":"6901.196","APOAPSIS":"524.116","REV_AT_EPOCH":"1132","NORAD_CAT_ID":"56290"},{"FILE":"3945546","MEAN_MOTION_DDOT":"0.0000000000000","TIME_SYSTEM":"UTC","OBJECT_TYPE":"PAYLOAD","ARG_OF_PERICENTER":"281.1966","PERIOD":"95.093","BSTAR":"0.00026051000000","GP_ID":"234620171","CLASSIFICATION_TYPE":"U","NORAD_CAT_ID":"56291","REV_AT_EPOCH":"1127","APOAPSIS":"524.062","SEMIMAJOR_AXIS":"6901.203","ECCENTRICITY":"0.00014400","INCLINATION":"42.9991","MEAN_MOTION_DOT":"0.00004632","COUNTRY_CODE":"US","OBJECT_ID":"2023-056F","ELEMENT_SET_NO":"999","LAUNCH_DATE":"2023-04-19","RA_OF_ASC_NODE":"163.1897","EPHEMERIS_TYPE":"0","EPOCH":"2023-06-29T00:13:22.668960","TLE_LINE1":"1 56291U 23056F   23180.00929015  .00004632  00000-0  26051-3 0  9991","CENTER_NAME":"EARTH","REF_FRAME":"TEME","MEAN_ELEMENT_THEORY":"SGP4","RCS_SIZE":"LARGE","TLE_LINE2":"2 56291  42.9991 163.1897 0001440 281.1966  78.8719 15.14312580 11277","SITE":"AFETR","OBJECT_NAME":"STARLINK-30113","MEAN_ANOMALY":"78.8719","PERIAPSIS":"522.075","MEAN_MOTION":"15.14312580","DECAY_DATE":null},{"ELEMENT_SET_NO":"999","OBJECT_ID":"2023-056G","LAUNCH_DATE":"2023-04-19","RA_OF_ASC_NODE":"160.8085","EPHEMERIS_TYPE":"0","COUNTRY_CODE":"US","CENTER_NAME":"EARTH","REF_FRAME":"TEME","EPOCH":"2023-06-29T09:06:27.204192","TLE_LINE1":"1 56292U 23056G   23180.37948153  .00007767  00000-0  42827-3 0  9997","OBJECT_NAME":"STARLINK-30098","PERIAPSIS":"522.194","MEAN_ANOMALY":"99.9184","MEAN_ELEMENT_THEORY":"SGP4","RCS_SIZE":"LARGE","TLE_LINE2":"2 56292  42.9986 160.8085 0001233 260.1524  99.9184 15.14320269 11332","SITE":"AFETR","MEAN_MOTION":"15.14320269","DECAY_DATE":null,"FILE":"3946033","MEAN_MOTION_DDOT":"0.0000000000000","PERIOD":"95.092","OBJECT_TYPE":"PAYLOAD","TIME_SYSTEM":"UTC","ARG_OF_PERICENTER":"260.1524","CLASSIFICATION_TYPE":"U","BSTAR":"0.00042827000000","GP_ID":"234632230","SEMIMAJOR_AXIS":"6901.180","ECCENTRICITY":"0.00012330","MEAN_MOTION_DOT":"0.00007767","INCLINATION":"42.9986","NORAD_CAT_ID":"56292","REV_AT_EPOCH":"1133","APOAPSIS":"523.896"},{"SEMIMAJOR_AXIS":"6901.210","INCLINATION":"42.9993","MEAN_MOTION_DOT":"0.00000448","ECCENTRICITY":"0.00014710","REV_AT_EPOCH":"1128","NORAD_CAT_ID":"56293","APOAPSIS":"524.090","CLASSIFICATION_TYPE":"U","BSTAR":"0.00003627900000","GP_ID":"234619664","PERIOD":"95.093","OBJECT_TYPE":"PAYLOAD","TIME_SYSTEM":"UTC","ARG_OF_PERICENTER":"279.3599","MEAN_MOTION_DDOT":"0.0000000000000","FILE":"3945546","DECAY_DATE":null,"MEAN_MOTION":"15.14310301","PERIAPSIS":"522.060","MEAN_ANOMALY":"80.7082","OBJECT_NAME":"STARLINK-30090","RCS_SIZE":"LARGE","MEAN_ELEMENT_THEORY":"SGP4","SITE":"AFETR","TLE_LINE2":"2 56293  42.9993 162.6438 0001471 279.3599  80.7082 15.14310301 11286","CENTER_NAME":"EARTH","REF_FRAME":"TEME","TLE_LINE1":"1 56293U 23056H   23180.05097586  .00000448  00000-0  36279-4 0  9992","EPOCH":"2023-06-29T01:13:24.314304","OBJECT_ID":"2023-056H","ELEMENT_SET_NO":"999","LAUNCH_DATE":"2023-04-19","EPHEMERIS_TYPE":"0","RA_OF_ASC_NODE":"162.6438","COUNTRY_CODE":"US"},{"DECAY_DATE":null,"MEAN_MOTION":"15.04482808","SITE":"AFETR","TLE_LINE2":"2 56294  43.0021 160.8882 0001502 279.4897  80.5777 15.04482808 11304","RCS_SIZE":"LARGE","MEAN_ELEMENT_THEORY":"SGP4","PERIAPSIS":"552.055","MEAN_ANOMALY":"80.5777","OBJECT_NAME":"STARLINK-30049","TLE_LINE1":"1 56294U 23056J   23180.05027952  .00000263  00000-0  33050-4 0  9992","EPOCH":"2023-06-29T01:12:24.150528","REF_FRAME":"TEME","CENTER_NAME":"EARTH","COUNTRY_CODE":"US","RA_OF_ASC_NODE":"160.8882","LAUNCH_DATE":"2023-04-19","EPHEMERIS_TYPE":"0","ELEMENT_SET_NO":"999","OBJECT_ID":"2023-056J","APOAPSIS":"554.137","REV_AT_EPOCH":"1130","NORAD_CAT_ID":"56294","MEAN_MOTION_DOT":"0.00000263","INCLINATION":"43.0021","ECCENTRICITY":"0.00015020","SEMIMAJOR_AXIS":"6931.231","GP_ID":"234620162","BSTAR":"0.00003305000000","CLASSIFICATION_TYPE":"U","ARG_OF_PERICENTER":"279.4897","TIME_SYSTEM":"UTC","OBJECT_TYPE":"PAYLOAD","PERIOD":"95.714","MEAN_MOTION_DDOT":"0.0000000000000","FILE":"3945546"},{"DECAY_DATE":null,"MEAN_MOTION":"15.22583062","RCS_SIZE":"LARGE","MEAN_ELEMENT_THEORY":"SGP4","SITE":"AFETR","TLE_LINE2":"2 56295  42.9993 135.1164 0001257 267.8173 125.5631 15.22583062 11677","PERIAPSIS":"497.190","MEAN_ANOMALY":"125.5631","OBJECT_NAME":"STARLINK-30083","TLE_LINE1":"1 56295U 23056K   23180.91667824 -.00930600  00000-0 -42444-1 0  9999","EPOCH":"2023-06-29T22:00:00.999936","CENTER_NAME":"EARTH","REF_FRAME":"TEME","COUNTRY_CODE":"US","OBJECT_ID":"2023-056K","ELEMENT_SET_NO":"999","LAUNCH_DATE":"2023-04-19","RA_OF_ASC_NODE":"135.1164","EPHEMERIS_TYPE":"0","REV_AT_EPOCH":"1167","NORAD_CAT_ID":"56295","APOAPSIS":"498.919","SEMIMAJOR_AXIS":"6876.190","INCLINATION":"42.9993","MEAN_MOTION_DOT":"-0.00930600","ECCENTRICITY":"0.00012570","BSTAR":"-0.04244400000000","GP_ID":"234632231","CLASSIFICATION_TYPE":"U","OBJECT_TYPE":"PAYLOAD","TIME_SYSTEM":"UTC","ARG_OF_PERICENTER":"267.8173","PERIOD":"94.576","MEAN_MOTION_DDOT":"0.0000000000000","FILE":"3946033"},{"DECAY_DATE":null,"MEAN_MOTION":"15.49544053","TLE_LINE2":"2 56296  42.9999 133.5354 0002085 249.7057 110.3579 15.49544053 11632","SITE":"AFETR","RCS_SIZE":"LARGE","MEAN_ELEMENT_THEORY":"SGP4","PERIAPSIS":"416.644","MEAN_ANOMALY":"110.3579","OBJECT_NAME":"STARLINK-30089","TLE_LINE1":"1 56296U 23056L   23180.25897151 -.00000387  00000-0 -87661-6 0  9990","EPOCH":"2023-06-29T06:12:55.138464","REF_FRAME":"TEME","CENTER_NAME":"EARTH","COUNTRY_CODE":"US","LAUNCH_DATE":"2023-04-19","RA_OF_ASC_NODE":"133.5354","EPHEMERIS_TYPE":"0","ELEMENT_SET_NO":"999","OBJECT_ID":"2023-056L","APOAPSIS":"419.478","REV_AT_EPOCH":"1163","NORAD_CAT_ID":"56296","INCLINATION":"42.9999","MEAN_MOTION_DOT":"-0.00000387","ECCENTRICITY":"0.00020850","SEMIMAJOR_AXIS":"6796.196","GP_ID":"234620583","BSTAR":"-0.00000087661000","CLASSIFICATION_TYPE":"U","ARG_OF_PERICENTER":"249.7057","TIME_SYSTEM":"UTC","OBJECT_TYPE":"PAYLOAD","PERIOD":"92.931","MEAN_MOTION_DDOT":"0.0000000000000","FILE":"3945577"},{"MEAN_MOTION":"15.04490264","DECAY_DATE":null,"OBJECT_NAME":"STARLINK-30086","PERIAPSIS":"552.152","MEAN_ANOMALY":"90.4945","MEAN_ELEMENT_THEORY":"SGP4","RCS_SIZE":"LARGE","SITE":"AFETR","TLE_LINE2":"2 56297  43.0007 158.9143 0001329 269.5746  90.4945 15.04490264 11356","CENTER_NAME":"EARTH","REF_FRAME":"TEME","EPOCH":"2023-06-29T08:39:37.755360","TLE_LINE1":"1 56297U 23056M   23180.36085365 -.00000312  00000-0 -73540-5 0  9997","OBJECT_ID":"2023-056M","ELEMENT_SET_NO":"999","RA_OF_ASC_NODE":"158.9143","LAUNCH_DATE":"2023-04-19","EPHEMERIS_TYPE":"0","COUNTRY_CODE":"US","SEMIMAJOR_AXIS":"6931.208","ECCENTRICITY":"0.00013290","MEAN_MOTION_DOT":"-0.00000312","INCLINATION":"43.0007","NORAD_CAT_ID":"56297","REV_AT_EPOCH":"1135","APOAPSIS":"553.994","CLASSIFICATION_TYPE":"U","BSTAR":"-0.00000735400000","GP_ID":"234625720","PERIOD":"95.713","OBJECT_TYPE":"PAYLOAD","TIME_SYSTEM":"UTC","ARG_OF_PERICENTER":"269.5746","FILE":"3945772","MEAN_MOTION_DDOT":"0.0000000000000"},{"MEAN_MOTION":"15.04488091","DECAY_DATE":null,"OBJECT_NAME":"STARLINK-30109","MEAN_ANOMALY":"89.3674","PERIAPSIS":"552.138","SITE":"AFETR","TLE_LINE2":"2 56298  43.0010 156.8595 0001358 270.7013  89.3674 15.04488091 11410","MEAN_ELEMENT_THEORY":"SGP4","RCS_SIZE":"LARGE","REF_FRAME":"TEME","CENTER_NAME":"EARTH","EPOCH":"2023-06-29T18:35:02.617440","TLE_LINE1":"1 56298U 23056N   23180.77433585  .00000407  00000-0  43146-4 0  9995","LAUNCH_DATE":"2023-04-19","RA_OF_ASC_NODE":"156.8595","EPHEMERIS_TYPE":"0","OBJECT_ID":"2023-056N","ELEMENT_SET_NO":"999","COUNTRY_CODE":"US","ECCENTRICITY":"0.00013580","MEAN_MOTION_DOT":"0.00000407","INCLINATION":"43.0010","SEMIMAJOR_AXIS":"6931.214","APOAPSIS":"554.021","NORAD_CAT_ID":"56298","REV_AT_EPOCH":"1141","CLASSIFICATION_TYPE":"U","GP_ID":"234632227","BSTAR":"0.00004314600000","PERIOD":"95.714","ARG_OF_PERICENTER":"270.7013","TIME_SYSTEM":"UTC","OBJECT_TYPE":"PAYLOAD","FILE":"3946033","MEAN_MOTION_DDOT":"0.0000000000000"},{"TLE_LINE1":"1 56299U 23056P   23180.07119628  .00002569  00000-0  14995-3 0  9998","EPOCH":"2023-06-29T01:42:31.358592","CENTER_NAME":"EARTH","REF_FRAME":"TEME","COUNTRY_CODE":"US","ELEMENT_SET_NO":"999","OBJECT_ID":"2023-056P","LAUNCH_DATE":"2023-04-19","EPHEMERIS_TYPE":"0","RA_OF_ASC_NODE":"150.5811","DECAY_DATE":null,"MEAN_MOTION":"15.14315079","RCS_SIZE":"LARGE","MEAN_ELEMENT_THEORY":"SGP4","SITE":"AFETR","TLE_LINE2":"2 56299  43.0001 150.5811 0000957 261.0990  98.9748 15.14315079 11429","PERIAPSIS":"522.400","MEAN_ANOMALY":"98.9748","OBJECT_NAME":"STARLINK-30108","OBJECT_TYPE":"PAYLOAD","TIME_SYSTEM":"UTC","ARG_OF_PERICENTER":"261.0990","PERIOD":"95.092","MEAN_MOTION_DDOT":"0.0000000000000","FILE":"3945546","REV_AT_EPOCH":"1142","NORAD_CAT_ID":"56299","APOAPSIS":"523.721","SEMIMAJOR_AXIS":"6901.196","INCLINATION":"43.0001","MEAN_MOTION_DOT":"0.00002569","ECCENTRICITY":"0.00009570","BSTAR":"0.00014995000000","GP_ID":"234619675","CLASSIFICATION_TYPE":"U"}];
